HAWK-9A                 
1 59446U 24066E   26068.43100697  .00002638  00000+0  23459-3 0  9992
2 59446  45.6088  72.7153 0003627 244.6286 115.4219 14.98777479104861
STARLINK-34461          
1 64418U 25129G   26068.42785764 -.00000699  00000+0 -50790-4 0  9997
2 64418  70.0007  75.2940 0003089 266.5562  93.5244 14.98331937 41244
